"{\n    \"CCSDS_OMM_VERS\": \"2.0\",\n    \"COMMENT\": \"GENERATED VIA SPACE-TRACK.ORG API\",\n    \"CREATION_DATE\": \"2025-08-31T11:35:43\",\n    \"ORIGINATOR\": \"18 SPCS\",\n    \"OBJECT_NAME\": \"NAVSTAR 62 (USA 201)\",\n    \"OBJECT_ID\": \"2008-012A\",\n    \"CENTER_NAME\": \"EARTH\",\n    \"REF_FRAME\": \"TEME\",\n    \"TIME_SYSTEM\": \"UTC\",\n    \"MEAN_ELEMENT_THEORY\": \"SGP4\",\n    \"EPOCH\": \"2025-08-30T23:16:14.277216\",\n    \"MEAN_MOTION\": \"2.0056106455\",\n    \"ECCENTRICITY\": \"0.020048944\",\n    \"INCLINATION\": \"54.466321\",\n    \"RA_OF_ASC_NODE\": \"161.51577\",\n    \"ARG_OF_PERICENTER\": \"244.10469\",\n    \"MEAN_ANOMALY\": \"113.83759\",\n    \"EPHEMERIS_TYPE\": \"0\",\n    \"CLASSIFICATION_TYPE\": \"U\",\n    \"NORAD_CAT_ID\": \"32711\",\n    \"ELEMENT_SET_NO\": \"999\",\n    \"REV_AT_EPOCH\": \"12793\",\n    \"BSTAR\": \"0\",\n    \"MEAN_MOTION_DOT\": \"-0.000000080793\",\n    \"MEAN_MOTION_DDOT\": \"0\",\n    \"TLE_LINE0\": \"0 NAVSTAR 62 (USA 201)\",\n    \"TLE_LINE1\": \"1 32711U 08012A   25242.96960969 -.00000008  00000-0  00000-0 0  9993\",\n    \"TLE_LINE2\": \"2 32711  54.4663 161.5158 0200489 244.1047 113.8376  2.00561065127932\",\n    \"SEMIMAJOR_AXIS\": \"26560.572\",\n    \"PERIOD\": \"717.986\",\n    \"APOAPSIS\": \"20714.948\",\n    \"PERIAPSIS\": \"19649.926\",\n    \"OBJECT_TYPE\": \"PAYLOAD\",\n    \"DECAYED\": \"0\"\n}"